[{"OBJECT_NAME":"OBJECT H","OBJECT_ID":"2023-091H","EPOCH":"2026-03-09T22:34:46.487712","MEAN_MOTION":15.26380881,"ECCENTRICITY":0.00117854,"INCLINATION":97.5166,"RA_OF_ASC_NODE":131.4381,"ARG_OF_PERICENTER":104.1062,"MEAN_ANOMALY":256.1487,"EPHEMERIS_TYPE":0,"CLASSIFICATION_TYPE":"U","NORAD_CAT_ID":57173,"ELEMENT_SET_NO":999,"REV_AT_EPOCH":14915,"BSTAR":0.00056321781,"MEAN_MOTION_DOT":0.00014617,"MEAN_MOTION_DDOT":0},{"OBJECT_NAME":"YAOGAN-43 02C","OBJECT_ID":"2024-156C","EPOCH":"2026-03-09T12:58:27.079680","MEAN_MOTION":15.22982353,"ECCENTRICITY":0.00039016,"INCLINATION":34.9976,"RA_OF_ASC_NODE":104.8158,"ARG_OF_PERICENTER":208.5676,"MEAN_ANOMALY":151.4825,"EPHEMERIS_TYPE":0,"CLASSIFICATION_TYPE":"U","NORAD_CAT_ID":60947,"ELEMENT_SET_NO":999,"REV_AT_EPOCH":8424,"BSTAR":0.000414332,"MEAN_MOTION_DOT":9.954e-5,"MEAN_MOTION_DDOT":0}]
